LYNK TOWER 4            
1 55034U 23001AB  26068.67743801  .00009160  00000+0  30014-3 0  9997
2 55034  97.3324 128.5940 0010321 112.3386 247.8950 15.31819885176588
STARLINK-31993          
1 59961U 24107S   26068.28098294  .00000279  00000+0  21540-4 0  9991
2 59961  53.1610  67.4421 0001212  86.4352 273.6787 15.30197661 99676
